{"type":"FeatureCollection","release":"2026-08-19.0","features":[{"type":"Feature","properties":{"name":"Children's House Montessori Nursery","subtype":"commercial","class":"commercial","height":null,"floors":2,"area_m2":2271},"geometry":{"type":"Polygon","coordinates":[[[54.5693671,24.4247311],[54.5687967,24.4245703],[54.5689744,24.4240616],[54.5695346,24.4242218],[54.5693671,24.4247311]]]}},{"type":"Feature","properties":{"name":"مسجد ابوايوب الانصاري","subtype":"religious","class":"","height":null,"floors":null,"area_m2":276},"geometry":{"type":"Polygon","coordinates":[[[54.5772709,24.4242705],[54.5773158,24.4240752],[54.5775038,24.424111],[54.577459,24.4243063],[54.5772709,24.4242705]]]}},{"type":"Feature","properties":{"name":"Lotus Hollistic Alternative Medical Center","subtype":"medical","class":"","height":null,"floors":null,"area_m2":159},"geometry":{"type":"Polygon","coordinates":[[[54.5854105,24.4279768],[54.585319,24.4278637],[54.5853835,24.4278205],[54.5853608,24.4277924],[54.5854303,24.4277458],[54.5855063,24.4278405],[54.5854717,24.4278656],[54.5854664,24.4279341],[54.5854105,24.4279768]]]}},{"type":"Feature","properties":{"name":"Abu Dhabi Aviation Training Center","subtype":"","class":"","height":null,"floors":null,"area_m2":2419},"geometry":{"type":"Polygon","coordinates":[[[54.5842588,24.4317721],[54.5844604,24.4311562],[54.5846543,24.4312088],[54.5846635,24.4311807],[54.5848081,24.4312199],[54.5847942,24.4312625],[54.584948,24.4313042],[54.584754,24.4318973],[54.5846062,24.4318573],[54.5845913,24.4319029],[54.5844617,24.4318677],[54.5844739,24.4318305],[54.5842588,24.4317721]]]}},{"type":"Feature","properties":{"name":"Khalifa City Police Station","subtype":"civic","class":"","height":null,"floors":null,"area_m2":1770},"geometry":{"type":"Polygon","coordinates":[[[54.5807293,24.4340374],[54.5805611,24.4341104],[54.5804792,24.4339711],[54.5805186,24.4339509],[54.5804578,24.4338408],[54.5809431,24.4336083],[54.5811942,24.4340485],[54.5810761,24.4341088],[54.5810877,24.4341399],[54.5809291,24.4342081],[54.580848,24.4340806],[54.5807729,24.4341205],[54.5807293,24.4340374]]]}},{"type":"Feature","properties":{"name":"Al Raha Mall","subtype":"","class":"","height":null,"floors":null,"area_m2":7091},"geometry":{"type":"Polygon","coordinates":[[[54.5750231,24.438945],[54.5748303,24.4395223],[54.5741586,24.4393307],[54.5740325,24.4394419],[54.5740137,24.4392929],[54.5734753,24.4391494],[54.5733948,24.4391885],[54.5733063,24.4391983],[54.5732553,24.4391763],[54.5732238,24.4391384],[54.5731675,24.4391604],[54.5731658,24.4391928],[54.5731484,24.4392209],[54.5731135,24.4392319],[54.5730867,24.4392245],[54.5730518,24.439205],[54.5731289,24.4391273],[54.573139,24.4391378],[54.573204,24.4390817],[54.5732114,24.4390438],[54.5732785,24.4389938],[54.5732815,24.4389346],[54.5732976,24.4389187],[54.5733284,24.4389089],[54.5733727,24.438926],[54.5734795,24.4387096],[54.5735649,24.4387002],[54.5736134,24.4385549],[54.5750231,24.438945]]]}},{"type":"Feature","properties":{"name":"Al Raha Beach Hotel","subtype":"","class":"","height":null,"floors":null,"area_m2":8275},"geometry":{"type":"Polygon","coordinates":[[[54.5720344,24.4380487],[54.572247,24.4380784],[54.5722383,24.4381505],[54.5722927,24.4381524],[54.5722906,24.4381768],[54.5723916,24.4382002],[54.5725553,24.4382484],[54.572643,24.4382846],[54.5726605,24.4382566],[54.5727209,24.4382792],[54.5727513,24.4382226],[54.5729361,24.4383069],[54.5731199,24.4384145],[54.5732911,24.4385478],[54.5731929,24.4386812],[54.5733083,24.4387594],[54.573213,24.4388509],[54.5732741,24.4389015],[54.5731068,24.4391049],[54.5731289,24.4391273],[54.5730518,24.439205],[54.5730065,24.4391775],[54.5729897,24.4391948],[54.5727946,24.4389878],[54.5724855,24.4387978],[54.5720644,24.4386971],[54.5714992,24.4387432],[54.5714869,24.4386916],[54.5714394,24.4384931],[54.5714106,24.4383729],[54.5715807,24.4383301],[54.5715689,24.4382607],[54.5716444,24.4382485],[54.5716102,24.4380631],[54.5718335,24.4380482],[54.5720344,24.4380487]]]}}]}