{"type":"FeatureCollection","window":{"south":24.422,"west":54.568,"north":24.44,"east":54.592},"release":"2026-08-19.0","features":[{"type":"Feature","properties":{"layer":"land","subtype":"land","class":"land","name":""},"geometry":{"type":"Polygon","coordinates":[[[54.5680084,24.4387792],[54.5680349,24.4387082],[54.5680835,24.4386082],[54.5681693,24.4385594],[54.5683434,24.4384909],[54.5686652,24.4383957],[54.5689898,24.4383517],[54.5692956,24.4383908],[54.5696392,24.4384715],[54.5699339,24.4385837],[54.5702585,24.4386325],[54.5705136,24.4386668],[54.5706767,24.4387064],[54.5705779,24.4393568],[54.5706453,24.4395392],[54.5707924,24.4396702],[54.5709722,24.4397173],[54.5711285,24.4397065],[54.5713428,24.4396026],[54.5716192,24.4394467],[54.5717426,24.4394467],[54.5718177,24.4395102],[54.5719465,24.4396078],[54.5721289,24.4396616],[54.5723112,24.4396713],[54.5725044,24.4396713],[54.5727189,24.4396616],[54.5729281,24.4396811],[54.5730944,24.4396957],[54.5732768,24.4397983],[54.5734601,24.439961],[54.57346073500678,24.44],[54.592,24.44],[54.592,24.422],[54.568,24.422],[54.568,24.438788161439586],[54.5680084,24.4387792]]]}},{"type":"Feature","properties":{"layer":"land","subtype":"forest","class":"forest","name":""},"geometry":{"type":"Polygon","coordinates":[[[54.5708769,24.4369035],[54.570943,24.4367612],[54.5701948,24.4365548],[54.568,24.4359328893808],[54.568,24.436089823493003],[54.5708769,24.4369035]]]}},{"type":"Feature","properties":{"layer":"land","subtype":"tree","class":"tree_row","name":""},"geometry":{"type":"LineString","coordinates":[[54.5720875,24.4377967],[54.5728758,24.4380165]]}},{"type":"Feature","properties":{"layer":"land","subtype":"sand","class":"sand","name":""},"geometry":{"type":"Polygon","coordinates":[[[54.5680084,24.4387792],[54.5680349,24.4387082],[54.5680835,24.4386082],[54.5681693,24.4385594],[54.5683407,24.4384833],[54.5682897,24.4384665],[54.5683383,24.4383738],[54.5683407,24.438298],[54.5682278,24.4383956],[54.5681017,24.438442],[54.568,24.438424615384616],[54.568,24.438788161439586],[54.5680084,24.4387792]]]}},{"type":"Feature","properties":{"layer":"land","subtype":"sand","class":"beach","name":""},"geometry":{"type":"Polygon","coordinates":[[[54.5705884,24.4386374],[54.5704036,24.438596],[54.5702853,24.4384616],[54.5699473,24.4384884],[54.5697033,24.438425],[54.5693063,24.4381808],[54.5693495,24.438093],[54.569202,24.4380295],[54.5691805,24.4380564],[54.5690491,24.4380637],[54.56903,24.4380343],[54.568743,24.4381319],[54.5687594,24.4381907],[54.568617,24.4382418],[54.5685606,24.4381979],[54.5683407,24.438298],[54.5683383,24.4383738],[54.5682897,24.4384665],[54.5683407,24.4384833],[54.5686632,24.4383879],[54.5689898,24.4383436],[54.5692973,24.4383829],[54.569642,24.4384639],[54.5699364,24.438576],[54.5702598,24.4386246],[54.5705153,24.438659],[54.570679,24.4386987],[54.5705884,24.4386374]]]}},{"type":"Feature","properties":{"layer":"land","subtype":"tree","class":"tree_row","name":""},"geometry":{"type":"LineString","coordinates":[[54.5749302,24.4396998],[54.5751045,24.4392358]]}},{"type":"Feature","properties":{"layer":"land","subtype":"forest","class":"forest","name":""},"geometry":{"type":"Polygon","coordinates":[[[54.5761145,24.4382404],[54.5759965,24.4383673],[54.58172543809548,24.44],[54.58236007942937,24.44],[54.5761145,24.4382404]]]}},{"type":"Feature","properties":{"layer":"land","subtype":"sand","class":"beach","name":""},"geometry":{"type":"Polygon","coordinates":[[[54.5717426,24.4394467],[54.5718177,24.4395102],[54.5719465,24.4396078],[54.5721289,24.4396616],[54.5723112,24.4396713],[54.5725044,24.4396713],[54.5727189,24.4396616],[54.5729281,24.4396811],[54.5730944,24.4396957],[54.5732768,24.4397983],[54.5734601,24.439961],[54.573459,24.4398304],[54.5734885,24.439734],[54.5735381,24.4396729],[54.5735738,24.4396012],[54.5734879,24.439506],[54.5733699,24.4394181],[54.5730615,24.439379],[54.5729488,24.4393937],[54.5727955,24.4394092],[54.5726109,24.4394645],[54.572525,24.4395304],[54.5723212,24.4394767],[54.5722354,24.4394767],[54.57212,24.4394547],[54.5719832,24.4394132],[54.5718545,24.4393522],[54.5717821,24.4393302],[54.5717437,24.4393577],[54.5716192,24.4394467],[54.5717426,24.4394467]]]}},{"type":"Feature","properties":{"layer":"land","subtype":"sand","class":"sand","name":""},"geometry":{"type":"MultiPolygon","coordinates":[[[[54.5742172,24.4396317],[54.5741447,24.4399162],[54.5740314,24.4399786],[54.57400823946637,24.44],[54.575570098652776,24.44],[54.5742172,24.4396317]]],[[[54.5781496,24.4396117],[54.5771947,24.4393358],[54.5761822,24.4389918],[54.5760505,24.439036],[54.5759994,24.439144],[54.5756719030076,24.44],[54.57961584238376,24.44],[54.5781496,24.4396117]]]]}}]}